0 IRIDIUM 150
1 43257U 18030J   24015.87869649 -.00000184  00000-0 -72688-4 0  9992
2 43257  86.3975 299.6236 0001662  75.1154 285.0226 14.34218297303558
0 IRIDIUM 143
1 43258U 18030K   24015.72012605  .00000471  00000-0  16118-3 0  9991
2 43258  86.3982 299.7476 0001690  84.3323 275.8066 14.34219703303467
0 IRIDIUM 161
1 43478U 18047C   24015.75547284  .00000770  00000-0  22283-3 0  9994
2 43478  86.4484  97.7153 0002197  93.9664 266.1788 14.43303618297717
0 IRIDIUM 152
1 43479U 18047D   24015.76261582  .00000223  00000-0  72697-4 0  9998
2 43479  86.3956  97.5716 0001947 100.4000 259.7415 14.34218166295866
0 IRIDIUM 147
1 43480U 18047E   24015.76896021  .00000153  00000-0  47517-4 0  9997
2 43480  86.3960  97.5585 0002294  93.2225 266.9233 14.34216901295864
0 IRIDIUM 110
1 43481U 18047F   24015.77530373  .00000323  00000-0  10828-3 0  9997
2 43481  86.3962  97.6250 0002259  82.3078 277.8374 14.34218444295853
0 IRIDIUM 162
1 43482U 18047G   24015.74922944  .00000765  00000-0  22141-3 0  9995
2 43482  86.4483  97.6200 0002202  94.3558 265.7894 14.43301884297702
0 IRIDIUM 160
1 43569U 18061A   24016.06998191  .00000450  00000-0  15359-3 0  9994
2 43569  86.3943  65.8505 0002474 101.0276 259.1198 14.34219241286793
